start=new Date('2023-03-14T00:00:00.000Z').valueOf();
sats=[{"OBJECT_TYPE":"PAYLOAD","COUNTRY_CODE":"US","RCS_SIZE":"LARGE","OBJECT_NAME":"STARLINK-3238","PERIOD":"95.437","LAUNCH_DATE":"2021-12-02","INCLINATION":"53.2195","FILE":"3859425","SITE":"AFETR","SEMIMAJOR_AXIS":"6917.847","REF_FRAME":"TEME","MEAN_ANOMALY":"287.5018","CENTER_NAME":"EARTH","ARG_OF_PERICENTER":"72.6342","RA_OF_ASC_NODE":"13.3572","MEAN_ELEMENT_THEORY":"SGP4","REV_AT_EPOCH":"7061","ECCENTRICITY":"0.00033570","APOAPSIS":"542.034","DECAY_DATE":null,"OBJECT_ID":"2021-115L","TIME_SYSTEM":"UTC","MEAN_MOTION_DDOT":"0.0000000000000","EPOCH":"2023-03-13T05:40:34.891680","CLASSIFICATION_TYPE":"U","TLE_LINE2":"2 49734  53.2195  13.3572 0003357  72.6342 287.5018 15.08851071 70618","EPHEMERIS_TYPE":"0","MEAN_MOTION_DOT":"0.00009184","ELEMENT_SET_NO":"999","BSTAR":"0.00059419000000","GP_ID":"228003055","NORAD_CAT_ID":"49734","TLE_LINE1":"1 49734U 21115L   23072.23651495  .00009184  00000-0  59419-3 0  9999","MEAN_MOTION":"15.08851071","PERIAPSIS":"537.389"},{"EPHEMERIS_TYPE":"0","ELEMENT_SET_NO":"999","MEAN_MOTION_DOT":"0.00014158","MEAN_MOTION_DDOT":"0.0000000000000","CLASSIFICATION_TYPE":"U","EPOCH":"2023-03-13T21:07:58.915200","TLE_LINE2":"2 49735  53.2177  20.4123 0001975 122.9122 237.2061 15.08838933 71678","MEAN_MOTION":"15.08838933","TLE_LINE1":"1 49735U 21115M   23072.88054300  .00014158  00000-0  90586-3 0  9990","PERIAPSIS":"538.382","GP_ID":"228009921","BSTAR":"0.00090586000000","NORAD_CAT_ID":"49735","LAUNCH_DATE":"2021-12-02","OBJECT_TYPE":"PAYLOAD","OBJECT_NAME":"STARLINK-3113","RCS_SIZE":"LARGE","COUNTRY_CODE":"US","PERIOD":"95.438","ECCENTRICITY":"0.00019750","REV_AT_EPOCH":"7167","APOAPSIS":"541.115","OBJECT_ID":"2021-115M","DECAY_DATE":null,"TIME_SYSTEM":"UTC","INCLINATION":"53.2177","FILE":"3859542","MEAN_ANOMALY":"237.2061","SEMIMAJOR_AXIS":"6917.884","REF_FRAME":"TEME","SITE":"AFETR","ARG_OF_PERICENTER":"122.9122","MEAN_ELEMENT_THEORY":"SGP4","RA_OF_ASC_NODE":"20.4123","CENTER_NAME":"EARTH"},{"OBJECT_ID":"2021-115N","DECAY_DATE":null,"TIME_SYSTEM":"UTC","REV_AT_EPOCH":"7181","ECCENTRICITY":"0.00013600","APOAPSIS":"540.725","SITE":"AFETR","MEAN_ANOMALY":"245.7399","SEMIMAJOR_AXIS":"6917.919","REF_FRAME":"TEME","CENTER_NAME":"EARTH","ARG_OF_PERICENTER":"114.3735","RA_OF_ASC_NODE":"10.6242","MEAN_ELEMENT_THEORY":"SGP4","INCLINATION":"53.2184","FILE":"3859550","LAUNCH_DATE":"2021-12-02","COUNTRY_CODE":"US","RCS_SIZE":"LARGE","OBJECT_NAME":"STARLINK-3148","PERIOD":"95.438","OBJECT_TYPE":"PAYLOAD","PERIAPSIS":"538.843","TLE_LINE1":"1 49736U 21115N   23072.84098270  .00001101  00000-0  87293-4 0  9997","MEAN_MOTION":"15.08827405","BSTAR":"0.00008729300000","GP_ID":"228010141","NORAD_CAT_ID":"49736","MEAN_MOTION_DOT":"0.00001101","ELEMENT_SET_NO":"999","EPHEMERIS_TYPE":"0","TLE_LINE2":"2 49736  53.2184  10.6242 0001360 114.3735 245.7399 15.08827405 71819","MEAN_MOTION_DDOT":"0.0000000000000","EPOCH":"2023-03-13T20:11:00.905280","CLASSIFICATION_TYPE":"U"},{"TLE_LINE2":"2 49737  53.2172  14.2075 0000962  77.0901 283.0198 15.08857880 71696","CLASSIFICATION_TYPE":"U","EPOCH":"2023-03-13T00:59:42.020448","MEAN_MOTION_DDOT":"0.0000000000000","MEAN_MOTION_DOT":"0.00023476","ELEMENT_SET_NO":"999","EPHEMERIS_TYPE":"0","NORAD_CAT_ID":"49737","BSTAR":"0.00148750000000","GP_ID":"228009245","PERIAPSIS":"539.025","TLE_LINE1":"1 49737U 21115P   23072.04145857  .00023476  00000-0  14875-2 0  9997","MEAN_MOTION":"15.08857880","PERIOD":"95.436","COUNTRY_CODE":"US","RCS_SIZE":"LARGE","OBJECT_NAME":"STARLINK-3225","OBJECT_TYPE":"PAYLOAD","LAUNCH_DATE":"2021-12-02","CENTER_NAME":"EARTH","ARG_OF_PERICENTER":"77.0901","MEAN_ELEMENT_THEORY":"SGP4","RA_OF_ASC_NODE":"14.2075","SITE":"AFETR","SEMIMAJOR_AXIS":"6917.826","REF_FRAME":"TEME","MEAN_ANOMALY":"283.0198","INCLINATION":"53.2172","FILE":"3859525","TIME_SYSTEM":"UTC","OBJECT_ID":"2021-115P","DECAY_DATE":null,"APOAPSIS":"540.356","REV_AT_EPOCH":"7169","ECCENTRICITY":"0.00009620"},{"LAUNCH_DATE":"2021-12-02","OBJECT_TYPE":"PAYLOAD","COUNTRY_CODE":"US","RCS_SIZE":"LARGE","OBJECT_NAME":"STARLINK-3143","PERIOD":"95.436","REV_AT_EPOCH":"7064","ECCENTRICITY":"0.00010630","APOAPSIS":"540.392","DECAY_DATE":null,"OBJECT_ID":"2021-115Q","TIME_SYSTEM":"UTC","FILE":"3859425","INCLINATION":"53.2193","SITE":"AFETR","SEMIMAJOR_AXIS":"6917.792","REF_FRAME":"TEME","MEAN_ANOMALY":"268.8459","CENTER_NAME":"EARTH","ARG_OF_PERICENTER":"91.2655","RA_OF_ASC_NODE":"12.3891","MEAN_ELEMENT_THEORY":"SGP4","EPHEMERIS_TYPE":"0","MEAN_MOTION_DOT":"0.00016848","ELEMENT_SET_NO":"999","MEAN_MOTION_DDOT":"0.0000000000000","EPOCH":"2023-03-13T10:42:36.529632","CLASSIFICATION_TYPE":"U","TLE_LINE2":"2 49738  53.2193  12.3891 0001063  91.2655 268.8459 15.08869005 70649","TLE_LINE1":"1 49738U 21115Q   23072.44625613  .00016848  00000-0  10733-2 0  9999","MEAN_MOTION":"15.08869005","PERIAPSIS":"538.921","BSTAR":"0.00107330000000","GP_ID":"228003555","NORAD_CAT_ID":"49738"},{"TLE_LINE2":"2 49739  53.2190  20.3965 0001183  98.1072 262.0055 15.08825244 71679","MEAN_MOTION_DDOT":"0.0000000000000","EPOCH":"2023-03-13T21:22:30.190944","CLASSIFICATION_TYPE":"U","ELEMENT_SET_NO":"999","MEAN_MOTION_DOT":"-0.00007325","EPHEMERIS_TYPE":"0","BSTAR":"-0.00044278000000","GP_ID":"228009249","NORAD_CAT_ID":"49739","PERIAPSIS":"538.972","MEAN_MOTION":"15.08825244","TLE_LINE1":"1 49739U 21115R   23072.89062721 -.00007325  00000-0 -44278-3 0  9998","OBJECT_NAME":"STARLINK-3155","COUNTRY_CODE":"US","RCS_SIZE":"LARGE","PERIOD":"95.438","OBJECT_TYPE":"PAYLOAD","LAUNCH_DATE":"2021-12-02","MEAN_ANOMALY":"262.0055","SEMIMAJOR_AXIS":"6917.925","REF_FRAME":"TEME","SITE":"AFETR","ARG_OF_PERICENTER":"98.1072","RA_OF_ASC_NODE":"20.3965","MEAN_ELEMENT_THEORY":"SGP4","CENTER_NAME":"EARTH","INCLINATION":"53.2190","FILE":"3859525","OBJECT_ID":"2021-115R","DECAY_DATE":null,"TIME_SYSTEM":"UTC","ECCENTRICITY":"0.00011830","REV_AT_EPOCH":"7167","APOAPSIS":"540.609"},{"FILE":"3859543","INCLINATION":"53.2201","SITE":"AFETR","SEMIMAJOR_AXIS":"6917.914","REF_FRAME":"TEME","MEAN_ANOMALY":"236.4555","CENTER_NAME":"EARTH","RA_OF_ASC_NODE":"10.5627","ARG_OF_PERICENTER":"123.6590","MEAN_ELEMENT_THEORY":"SGP4","REV_AT_EPOCH":"7181","ECCENTRICITY":"0.00016010","APOAPSIS":"540.886","DECAY_DATE":null,"OBJECT_ID":"2021-115S","TIME_SYSTEM":"UTC","OBJECT_TYPE":"PAYLOAD","COUNTRY_CODE":"US","RCS_SIZE":"LARGE","OBJECT_NAME":"STARLINK-3226","PERIOD":"95.438","LAUNCH_DATE":"2021-12-02","BSTAR":"0.00004649100000","GP_ID":"228009791","NORAD_CAT_ID":"49740","TLE_LINE1":"1 49740U 21115S   23072.85475249  .00000452  00000-0  46491-4 0  9991","MEAN_MOTION":"15.08829154","PERIAPSIS":"538.671","MEAN_MOTION_DDOT":"0.0000000000000","EPOCH":"2023-03-13T20:30:50.615136","CLASSIFICATION_TYPE":"U","TLE_LINE2":"2 49740  53.2201  10.5627 0001601 123.6590 236.4555 15.08829154 71814","EPHEMERIS_TYPE":"0","MEAN_MOTION_DOT":"0.00000452","ELEMENT_SET_NO":"999"},{"MEAN_MOTION":"15.08839482","TLE_LINE1":"1 49741U 21115T   23072.84739364  .00026837  00000-0  16979-2 0  9993","PERIAPSIS":"538.711","NORAD_CAT_ID":"49741","GP_ID":"228010125","BSTAR":"0.00169790000000","EPHEMERIS_TYPE":"0","ELEMENT_SET_NO":"999","MEAN_MOTION_DOT":"0.00026837","CLASSIFICATION_TYPE":"U","EPOCH":"2023-03-13T20:20:14.810496","MEAN_MOTION_DDOT":"0.0000000000000","TLE_LINE2":"2 49741  53.2180  10.5933 0001497 104.5931 255.5227 15.08839482 71814","APOAPSIS":"540.783","ECCENTRICITY":"0.00014970","REV_AT_EPOCH":"7181","TIME_SYSTEM":"UTC","DECAY_DATE":null,"OBJECT_ID":"2021-115T","FILE":"3859558","INCLINATION":"53.2180","RA_OF_ASC_NODE":"10.5933","ARG_OF_PERICENTER":"104.5931","MEAN_ELEMENT_THEORY":"SGP4","CENTER_NAME":"EARTH","MEAN_ANOMALY":"255.5227","SEMIMAJOR_AXIS":"6917.882","REF_FRAME":"TEME","SITE":"AFETR","LAUNCH_DATE":"2021-12-02","OBJECT_TYPE":"PAYLOAD","PERIOD":"95.438","OBJECT_NAME":"STARLINK-3244","COUNTRY_CODE":"US","RCS_SIZE":"LARGE"},{"BSTAR":"0.00067925000000","GP_ID":"228010055","NORAD_CAT_ID":"49742","TLE_LINE1":"1 49742U 21115U   23072.79587829  .00010536  00000-0  67925-3 0  9992","MEAN_MOTION":"15.08831849","PERIAPSIS":"538.946","MEAN_MOTION_DDOT":"0.0000000000000","CLASSIFICATION_TYPE":"U","EPOCH":"2023-03-13T19:06:03.884256","TLE_LINE2":"2 49742  53.2184  10.8203 0001192  92.2272 267.8857 15.08831849 71808","EPHEMERIS_TYPE":"0","MEAN_MOTION_DOT":"0.00010536","ELEMENT_SET_NO":"999","FILE":"3859542","INCLINATION":"53.2184","SITE":"AFETR","SEMIMAJOR_AXIS":"6917.905","MEAN_ANOMALY":"267.8857","REF_FRAME":"TEME","CENTER_NAME":"EARTH","ARG_OF_PERICENTER":"92.2272","RA_OF_ASC_NODE":"10.8203","MEAN_ELEMENT_THEORY":"SGP4","REV_AT_EPOCH":"7180","ECCENTRICITY":"0.00011920","APOAPSIS":"540.595","DECAY_DATE":null,"OBJECT_ID":"2021-115U","TIME_SYSTEM":"UTC","OBJECT_TYPE":"PAYLOAD","COUNTRY_CODE":"US","RCS_SIZE":"LARGE","OBJECT_NAME":"STARLINK-3202","PERIOD":"95.438","LAUNCH_DATE":"2021-12-02"},{"OBJECT_TYPE":"PAYLOAD","COUNTRY_CODE":"US","RCS_SIZE":"LARGE","OBJECT_NAME":"STARLINK-3239","PERIOD":"95.439","LAUNCH_DATE":"2021-12-02","FILE":"3859542","INCLINATION":"53.2199","SITE":"AFETR","REF_FRAME":"TEME","SEMIMAJOR_AXIS":"6917.960","MEAN_ANOMALY":"280.6802","CENTER_NAME":"EARTH","ARG_OF_PERICENTER":"79.4294","RA_OF_ASC_NODE":"10.5777","MEAN_ELEMENT_THEORY":"SGP4","REV_AT_EPOCH":"7181","ECCENTRICITY":"0.00009220","APOAPSIS":"540.462","OBJECT_ID":"2021-115V","DECAY_DATE":null,"TIME_SYSTEM":"UTC","MEAN_MOTION_DDOT":"0.0000000000000","EPOCH":"2023-03-13T20:25:32.956032","CLASSIFICATION_TYPE":"U","TLE_LINE2":"2 49743  53.2199  10.5777 0000922  79.4294 280.6802 15.08814077 71817","EPHEMERIS_TYPE":"0","MEAN_MOTION_DOT":"-0.00001608","ELEMENT_SET_NO":"999","BSTAR":"-0.00008302700000","GP_ID":"228010064","NORAD_CAT_ID":"49743","TLE_LINE1":"1 49743U 21115V   23072.85107588 -.00001608  00000-0 -83027-4 0  9994","MEAN_MOTION":"15.08814077","PERIAPSIS":"539.187"}];
